[{"OBJECT_NAME":"STARLINK-3809","OBJECT_ID":"2022-062X","EPOCH":"2026-03-09T04:09:30.194496","MEAN_MOTION":15.08837001,"ECCENTRICITY":0.00012823,"INCLINATION":53.2191,"RA_OF_ASC_NODE":26.437,"ARG_OF_PERICENTER":90.8773,"MEAN_ANOMALY":269.2366,"EPHEMERIS_TYPE":0,"CLASSIFICATION_TYPE":"U","NORAD_CAT_ID":52851,"ELEMENT_SET_NO":999,"REV_AT_EPOCH":20584,"BSTAR":1.443992e-5,"MEAN_MOTION_DOT":-5.8e-7,"MEAN_MOTION_DDOT":0},{"OBJECT_NAME":"PEGASUS DEB","OBJECT_ID":"1994-029LN","EPOCH":"2026-03-09T13:32:28.639104","MEAN_MOTION":14.7969053,"ECCENTRICITY":0.014325,"INCLINATION":81.5077,"RA_OF_ASC_NODE":265.5669,"ARG_OF_PERICENTER":165.8227,"MEAN_ANOMALY":194.7072,"EPHEMERIS_TYPE":0,"CLASSIFICATION_TYPE":"U","NORAD_CAT_ID":24239,"ELEMENT_SET_NO":999,"REV_AT_EPOCH":56152,"BSTAR":0.0015079,"MEAN_MOTION_DOT":0.00013522,"MEAN_MOTION_DDOT":0}]
